ONEWEB-0669             
1 55828U 23029AJ  26193.17382637  .00000096  00000+0  20326-3 0  9992
2 55828  87.9184 269.4621 0001752  85.6690 274.4643 13.20773504164447
ONEWEB-0670             
1 55829U 23029AK  26193.17892933  .00000208  00000+0  52560-3 0  9998
2 55829  87.8958 284.7590 0001647 103.3443 256.7870 13.14501895162716
ONEWEB-0671             
1 55830U 23029AL  26193.23467758  .00000103  00000+0  22618-3 0  9995
2 55830  87.9185 299.9874 0001947 105.2600 254.8748 13.19726774162200
ONEWEB-0672             
1 55831U 23029AM  26193.16878514  .00000099  00000+0  21043-3 0  9999
2 55831  87.9189 269.4569 0002133  92.2204 267.9173 13.20770115164446
ONEWEB-0673             
1 55832U 23029AN  26192.83263978  .00009674  00000+0  24121-1 0  9991
2 55832  87.9146 300.0672 0001979  92.1762 267.9598 13.19682584162159
ONEWEB-0674             
1 55833U 23029AP  26193.22331937  .00000033  00000+0  54921-4 0  9991
2 55833  87.8957 284.7271 0001660 102.7110 257.4206 13.14501983162703
ONEWEB-0675             
1 55834U 23029AQ  26193.15096557  .00000012  00000+0 -13614-5 0  9993
2 55834  87.9187 300.0059 0002244  97.7201 262.4186 13.19724053162218
ONEWEB-0720             
1 55835U 23029AR  26192.83980147  .00000120  00000+0  26854-3 0  9992
2 55835  87.9187 300.0668 0002006 111.1370 248.9978 13.19726932162091
ONEWEB-0537             
1 56046U 23043A   26193.04560819 -.00000019  00000+0 -83724-4 0  9996
2 56046  87.9080 223.8340 0002216  89.0464 271.0920 13.16593841162235
ONEWEB-0538             
1 56047U 23043B   26193.03927220 -.00000008  00000+0 -55282-4 0  9995
2 56047  87.9083 223.8377 0002301  95.6643 264.4751 13.16593594162240
ONEWEB-0546             
1 56048U 23043C   26192.64662125 -.00000052  00000+0 -16940-3 0  9998
2 56048  87.9081 223.9160 0002422  78.6499 281.4904 13.16593697162180
ONEWEB-0547             
1 56049U 23043D   26193.07654102  .00000101  00000+0  21242-3 0  9997
2 56049  87.9238 239.0219 0002216  99.3164 260.8221 13.21827246161513
ONEWEB-0548             
1 56050U 23043E   26193.05113869  .00000042  00000+0  76080-4 0  9992
2 56050  87.9073 223.8316 0001600  92.2855 267.8459 13.16594657162237
ONEWEB-0549             
1 56051U 23043F   26193.07065814  .00000074  00000+0  14674-3 0  9996
2 56051  87.9232 239.0285 0002433  98.5066 261.6344 13.21827265161512
ONEWEB-0550             
1 56052U 23043G   26193.05721109  .00000016  00000+0  75759-5 0  9990
2 56052  87.9232 239.0296 0001815  93.4735 266.6607 13.21827209161510
ONEWEB-0551             
1 56053U 23043H   26193.10204021  .00000025  00000+0  31051-4 0  9992
2 56053  87.8988 254.2622 0002314 103.7292 256.4096 13.15547343159672
ONEWEB-0552             
1 56054U 23043J   26192.59797093  .00000028  00000+0  35489-4 0  9993
2 56054  87.9231 239.1256 0002038 101.3067 258.8296 13.21825635161454
ONEWEB-0553             
1 56055U 23043K   26193.03293801  .00000020  00000+0  19284-4 0  9999
2 56055  87.9081 223.8391 0002125  84.1482 275.9891 13.16594176162240
ONEWEB-0554             
1 56056U 23043L   26193.02027575  .00000019  00000+0  16914-4 0  9997
2 56056  87.9074 223.8507 0001512  87.5869 272.5435 13.16594046162228
ONEWEB-0555             
1 56057U 23043M   26193.05826693  .00000057  00000+0  11430-3 0  9998
2 56057  87.9078 223.8317 0002277  79.2549 280.8838 13.16593569162233
ONEWEB-0557             
1 56058U 23043N   26193.07251708  .00000129  00000+0  30447-3 0  9999
2 56058  87.9079 223.8386 0001459  56.5217 303.6053 13.16593625162238
ONEWEB-0558             
1 56059U 23043P   26192.66694469 -.00000056  00000+0 -16632-3 0  9990
2 56059  87.9238 239.1067 0002421  97.3886 262.7523 13.21825442161470
ONEWEB-0559             
1 56060U 23043Q   26192.65516453 -.00000089  00000+0 -24712-3 0  9991
2 56060  87.9239 239.1049 0002259 101.1568 258.9820 13.21823597161480
ONEWEB-0566             
1 56061U 23043R   26193.10261640  .00000053  00000+0  96007-4 0  9994
2 56061  87.9238 239.0138 0002329 102.9616 257.1778 13.21823834161521
ONEWEB-0568             
1 56062U 23043S   26193.08993766  .00000044  00000+0  81357-4 0  9995
2 56062  87.9079 223.8245 0002134  86.5155 273.6220 13.16595911162256
ONEWEB-0574             
1 56063U 23043T   26192.64172648  .00000003  00000+0 -25435-4 0  9996
2 56063  87.9248 239.1095 0001859  96.7331 263.4014 13.21825723161508
ONEWEB-0575             
1 56064U 23043U   26193.08359882  .00000090  00000+0  20277-3 0  9996
2 56064  87.9079 223.8222 0001796  82.8998 277.2337 13.16595542162248
ONEWEB-0576             
1 56065U 23043V   26193.06459308  .00000168  00000+0  40634-3 0  9994
2 56065  87.9079 223.8348 0001957  91.1741 268.9614 13.16595505162239
ONEWEB-0577             
1 56066U 23043W   26193.07093604  .00000069  00000+0  14626-3 0  9991
2 56066  87.9081 223.8310 0001356  78.3806 281.7477 13.16595046162267
ONEWEB-0578             
1 56067U 23043X   26193.08244823  .00000081  00000+0  16413-3 0  9994
2 56067  87.9240 239.0189 0002170  87.4576 272.6806 13.21826011161526
