OBJECT_NAME,OBJECT_ID,EPOCH,MEAN_MOTION,ECCENTRICITY,INCLINATION,RA_OF_ASC_NODE,ARG_OF_PERICENTER,MEAN_ANOMALY,EPHEMERIS_TYPE,CLASSIFICATION_TYPE,NORAD_CAT_ID,ELEMENT_SET_NO,REV_AT_EPOCH,BSTAR,MEAN_MOTION_DOT,MEAN_MOTION_DDOT
ONEWEB-0669,2023-029AJ,2026-07-12T04:10:18.598368,13.20773504,.0001752,87.9184,269.4621,85.6690,274.4643,0,U,55828,999,16444,.20326E-3,.96E-6,0
ONEWEB-0670,2023-029AK,2026-07-12T04:17:39.494112,13.14501895,.0001647,87.8958,284.7590,103.3443,256.7870,0,U,55829,999,16271,.5256E-3,.208E-5,0
ONEWEB-0671,2023-029AL,2026-07-12T05:37:56.142912,13.19726774,.0001947,87.9185,299.9874,105.2600,254.8748,0,U,55830,999,16220,.22618E-3,.103E-5,0
ONEWEB-0672,2023-029AM,2026-07-12T04:03:03.036096,13.20770115,.0002133,87.9189,269.4569,92.2204,267.9173,0,U,55831,999,16444,.21043E-3,.99E-6,0
ONEWEB-0673,2023-029AN,2026-07-11T19:59:00.076992,13.19682584,.00019798,87.9146,300.0672,92.1762,267.9598,0,U,55832,999,16215,.24121292E-1,.9674E-4,0
ONEWEB-0674,2023-029AP,2026-07-12T05:21:34.793568,13.14501983,.000166,87.8957,284.7271,102.7110,257.4206,0,U,55833,999,16270,.54921E-4,.33E-6,0
ONEWEB-0675,2023-029AQ,2026-07-12T03:37:23.425248,13.19724053,.0002244,87.9187,300.0059,97.7201,262.4186,0,U,55834,999,16221,-.13614E-5,.12E-6,0
ONEWEB-0720,2023-029AR,2026-07-11T20:09:18.847008,13.19726932,.00020061,87.9187,300.0668,111.1370,248.9978,0,U,55835,999,16209,.26854405E-3,.12E-5,0
ONEWEB-0537,2023-043A,2026-07-12T01:05:40.547616,13.16593841,.0002216,87.9080,223.8340,89.0464,271.0920,0,U,56046,999,16223,-.83724E-4,-.19E-6,0
ONEWEB-0538,2023-043B,2026-07-12T00:56:33.118080,13.16593594,.0002301,87.9083,223.8377,95.6643,264.4751,0,U,56047,999,16224,-.55282E-4,-.8E-7,0
ONEWEB-0546,2023-043C,2026-07-11T15:31:08.076000,13.16593697,.00024225,87.9081,223.9160,78.6499,281.4904,0,U,56048,999,16218,-.16940299E-3,-.52E-6,0
ONEWEB-0547,2023-043D,2026-07-12T01:50:13.144128,13.21827246,.0002216,87.9238,239.0219,99.3164,260.8221,0,U,56049,999,16151,.21242E-3,.101E-5,0
ONEWEB-0548,2023-043E,2026-07-12T01:13:38.382816,13.16594657,.00016,87.9073,223.8316,92.2855,267.8459,0,U,56050,999,16223,.7608E-4,.42E-6,0
ONEWEB-0549,2023-043F,2026-07-12T01:41:44.863296,13.21827265,.0002433,87.9232,239.0285,98.5066,261.6344,0,U,56051,999,16151,.14674E-3,.74E-6,0
ONEWEB-0550,2023-043G,2026-07-12T01:22:23.038176,13.21827209,.0001815,87.9232,239.0296,93.4735,266.6607,0,U,56052,999,16151,.75759E-5,.16E-6,0
ONEWEB-0551,2023-043H,2026-07-12T02:26:56.274144,13.15547343,.0002314,87.8988,254.2622,103.7292,256.4096,0,U,56053,999,15967,.31051E-4,.25E-6,0
ONEWEB-0552,2023-043J,2026-07-11T14:21:04.688352,13.21825635,.00020382,87.9231,239.1256,101.3067,258.8296,0,U,56054,999,16145,.35488579E-4,.28E-6,0
ONEWEB-0553,2023-043K,2026-07-12T00:47:25.844064,13.16594176,.0002125,87.9081,223.8391,84.1482,275.9891,0,U,56055,999,16224,.19284E-4,.2E-6,0
ONEWEB-0554,2023-043L,2026-07-12T00:29:11.824800,13.16594046,.0001512,87.9074,223.8507,87.5869,272.5435,0,U,56056,999,16222,.16914E-4,.19E-6,0
ONEWEB-0555,2023-043M,2026-07-12T01:23:54.262752,13.16593569,.0002277,87.9078,223.8317,79.2549,280.8838,0,U,56057,999,16223,.1143E-3,.57E-6,0
ONEWEB-0557,2023-043N,2026-07-12T01:44:25.475712,13.16593625,.0001459,87.9079,223.8386,56.5217,303.6053,0,U,56058,999,16223,.30447E-3,.129E-5,0
ONEWEB-0558,2023-043P,2026-07-11T16:00:24.021216,13.21825442,.00024218,87.9238,239.1067,97.3886,262.7523,0,U,56059,999,16147,-.1663166E-3,-.56E-6,0
ONEWEB-0559,2023-043Q,2026-07-11T15:43:26.215392,13.21823597,.00022597,87.9239,239.1049,101.1568,258.9820,0,U,56060,999,16148,-.24712144E-3,-.89E-6,0
ONEWEB-0566,2023-043R,2026-07-12T02:27:46.056960,13.21823834,.0002329,87.9238,239.0138,102.9616,257.1778,0,U,56061,999,16152,.96007E-4,.53E-6,0
ONEWEB-0568,2023-043S,2026-07-12T02:09:30.613824,13.16595911,.0002134,87.9079,223.8245,86.5155,273.6220,0,U,56062,999,16225,.81357E-4,.44E-6,0
ONEWEB-0574,2023-043T,2026-07-11T15:24:05.167872,13.21825723,.00018594,87.9248,239.1095,96.7331,263.4014,0,U,56063,999,16150,-.25435411E-4,.3E-7,0
ONEWEB-0575,2023-043U,2026-07-12T02:00:22.938048,13.16595542,.0001796,87.9079,223.8222,82.8998,277.2337,0,U,56064,999,16224,.20277E-3,.9E-6,0
ONEWEB-0576,2023-043V,2026-07-12T01:33:00.842112,13.16595505,.0001957,87.9079,223.8348,91.1741,268.9614,0,U,56065,999,16223,.40634E-3,.168E-5,0
ONEWEB-0577,2023-043W,2026-07-12T01:42:08.873856,13.16595046,.0001356,87.9081,223.8310,78.3806,281.7477,0,U,56066,999,16226,.14626E-3,.69E-6,0
ONEWEB-0578,2023-043X,2026-07-12T01:58:43.527072,13.21826011,.000217,87.9240,239.0189,87.4576,272.6806,0,U,56067,999,16152,.16413E-3,.81E-6,0
